[{"OBJECT_NAME":"SENTINEL-6A","OBJECT_ID":"2020-086A","EPOCH":"2026-03-14T10:58:46.683264","MEAN_MOTION":12.80929906,"ECCENTRICITY":0.00077914,"INCLINATION":66.044,"RA_OF_ASC_NODE":331.8105,"ARG_OF_PERICENTER":270.9616,"MEAN_ANOMALY":89.0507,"EPHEMERIS_TYPE":0,"CLASSIFICATION_TYPE":"U","NORAD_CAT_ID":46984,"ELEMENT_SET_NO":999,"REV_AT_EPOCH":24819,"BSTAR":6.9569988e-5,"MEAN_MOTION_DOT":-4.5e-7,"MEAN_MOTION_DDOT":0},{"OBJECT_NAME":"GAOFEN-12 02","OBJECT_ID":"2021-026A","EPOCH":"2026-03-14T14:09:55.549728","MEAN_MOTION":14.80210313,"ECCENTRICITY":0.0004979,"INCLINATION":97.992,"RA_OF_ASC_NODE":72.1696,"ARG_OF_PERICENTER":164.5019,"MEAN_ANOMALY":195.6346,"EPHEMERIS_TYPE":0,"CLASSIFICATION_TYPE":"U","NORAD_CAT_ID":48079,"ELEMENT_SET_NO":999,"REV_AT_EPOCH":26776,"BSTAR":8.70489e-5,"MEAN_MOTION_DOT":6.09e-6,"MEAN_MOTION_DDOT":0},{"OBJECT_NAME":"PLEIADES NEO 3","OBJECT_ID":"2021-034A","EPOCH":"2026-03-14T15:21:49.997664","MEAN_MOTION":14.81675406,"ECCENTRICITY":0.00013223,"INCLINATION":97.8932,"RA_OF_ASC_NODE":149.764,"ARG_OF_PERICENTER":91.9406,"MEAN_ANOMALY":268.1958,"EPHEMERIS_TYPE":0,"CLASSIFICATION_TYPE":"U","NORAD_CAT_ID":48268,"ELEMENT_SET_NO":999,"REV_AT_EPOCH":26365,"BSTAR":0.00010484215,"MEAN_MOTION_DOT":7.73e-6,"MEAN_MOTION_DDOT":0},{"OBJECT_NAME":"PLEIADES NEO 4","OBJECT_ID":"2021-073E","EPOCH":"2026-03-14T14:33:11.656224","MEAN_MOTION":14.8167195,"ECCENTRICITY":0.00013162,"INCLINATION":97.893,"RA_OF_ASC_NODE":149.7265,"ARG_OF_PERICENTER":91.3254,"MEAN_ANOMALY":268.8109,"EPHEMERIS_TYPE":0,"CLASSIFICATION_TYPE":"U","NORAD_CAT_ID":49070,"ELEMENT_SET_NO":999,"REV_AT_EPOCH":24736,"BSTAR":-3.600426e-5,"MEAN_MOTION_DOT":-3.35e-6,"MEAN_MOTION_DDOT":0},{"OBJECT_NAME":"LANDSAT 9","OBJECT_ID":"2021-088A","EPOCH":"2026-03-14T15:20:11.250240","MEAN_MOTION":14.57130988,"ECCENTRICITY":0.00010955,"INCLINATION":98.1931,"RA_OF_ASC_NODE":145.3453,"ARG_OF_PERICENTER":94.8745,"MEAN_ANOMALY":265.2579,"EPHEMERIS_TYPE":0,"CLASSIFICATION_TYPE":"U","NORAD_CAT_ID":49260,"ELEMENT_SET_NO":999,"REV_AT_EPOCH":23723,"BSTAR":0.00011813353,"MEAN_MOTION_DOT":4.87e-6,"MEAN_MOTION_DDOT":0},{"OBJECT_NAME":"CSG-2","OBJECT_ID":"2022-008A","EPOCH":"2026-03-14T13:41:16.831680","MEAN_MOTION":14.82145689,"ECCENTRICITY":0.00013817,"INCLINATION":97.8871,"RA_OF_ASC_NODE":258.5349,"ARG_OF_PERICENTER":81.4371,"MEAN_ANOMALY":278.6998,"EPHEMERIS_TYPE":0,"CLASSIFICATION_TYPE":"U","NORAD_CAT_ID":51444,"ELEMENT_SET_NO":999,"REV_AT_EPOCH":22257,"BSTAR":1.0896539e-5,"MEAN_MOTION_DOT":3.5e-7,"MEAN_MOTION_DDOT":0},{"OBJECT_NAME":"GAOFEN-12 03","OBJECT_ID":"2022-069A","EPOCH":"2026-03-14T16:02:17.949120","MEAN_MOTION":14.79865579,"ECCENTRICITY":0.00023658,"INCLINATION":97.8403,"RA_OF_ASC_NODE":323.8693,"ARG_OF_PERICENTER":86.3434,"MEAN_ANOMALY":273.8049,"EPHEMERIS_TYPE":0,"CLASSIFICATION_TYPE":"U","NORAD_CAT_ID":52912,"ELEMENT_SET_NO":999,"REV_AT_EPOCH":20063,"BSTAR":0.00017591331,"MEAN_MOTION_DOT":1.276e-5,"MEAN_MOTION_DDOT":0},{"OBJECT_NAME":"SWOT","OBJECT_ID":"2022-173A","EPOCH":"2026-03-14T14:19:59.074464","MEAN_MOTION":14.00170378,"ECCENTRICITY":5.964e-5,"INCLINATION":77.6118,"RA_OF_ASC_NODE":162.9982,"ARG_OF_PERICENTER":248.7634,"MEAN_ANOMALY":111.3454,"EPHEMERIS_TYPE":0,"CLASSIFICATION_TYPE":"U","NORAD_CAT_ID":54754,"ELEMENT_SET_NO":999,"REV_AT_EPOCH":16591,"BSTAR":1.1508862e-5,"MEAN_MOTION_DOT":1.4e-7,"MEAN_MOTION_DDOT":0},{"OBJECT_NAME":"GAOFEN-12 04","OBJECT_ID":"2023-123A","EPOCH":"2026-03-14T15:05:21.896160","MEAN_MOTION":14.80020192,"ECCENTRICITY":0.0001606,"INCLINATION":97.9129,"RA_OF_ASC_NODE":353.0181,"ARG_OF_PERICENTER":74.1158,"MEAN_ANOMALY":286.0231,"EPHEMERIS_TYPE":0,"CLASSIFICATION_TYPE":"U","NORAD_CAT_ID":57654,"ELEMENT_SET_NO":999,"REV_AT_EPOCH":13864,"BSTAR":0.00020963639,"MEAN_MOTION_DOT":1.535e-5,"MEAN_MOTION_DDOT":0},{"OBJECT_NAME":"PARS 1","OBJECT_ID":"2024-039Q","EPOCH":"2026-03-14T14:34:30.828864","MEAN_MOTION":15.4357852,"ECCENTRICITY":0.00121468,"INCLINATION":97.4754,"RA_OF_ASC_NODE":51.7379,"ARG_OF_PERICENTER":96.0154,"MEAN_ANOMALY":264.2479,"EPHEMERIS_TYPE":0,"CLASSIFICATION_TYPE":"U","NORAD_CAT_ID":59065,"ELEMENT_SET_NO":999,"REV_AT_EPOCH":11404,"BSTAR":0.00038797678,"MEAN_MOTION_DOT":0.00017406,"MEAN_MOTION_DDOT":0},{"OBJECT_NAME":"RESURS-P 4","OBJECT_ID":"2024-061A","EPOCH":"2026-03-14T15:23:39.194304","MEAN_MOTION":15.32975934,"ECCENTRICITY":0.00021072,"INCLINATION":97.2655,"RA_OF_ASC_NODE":23.2114,"ARG_OF_PERICENTER":55.1176,"MEAN_ANOMALY":305.0264,"EPHEMERIS_TYPE":0,"CLASSIFICATION_TYPE":"U","NORAD_CAT_ID":59371,"ELEMENT_SET_NO":999,"REV_AT_EPOCH":10928,"BSTAR":0.0001664527,"MEAN_MOTION_DOT":5.225e-5,"MEAN_MOTION_DDOT":0},{"OBJECT_NAME":"LEGION 1","OBJECT_ID":"2024-081A","EPOCH":"2026-03-14T13:13:00.949152","MEAN_MOTION":15.16398013,"ECCENTRICITY":0.00096961,"INCLINATION":97.5069,"RA_OF_ASC_NODE":152.4019,"ARG_OF_PERICENTER":357.3261,"MEAN_ANOMALY":2.7918,"EPHEMERIS_TYPE":0,"CLASSIFICATION_TYPE":"U","NORAD_CAT_ID":59625,"ELEMENT_SET_NO":999,"REV_AT_EPOCH":10319,"BSTAR":0.00031800702,"MEAN_MOTION_DOT":6.117e-5,"MEAN_MOTION_DDOT":0},{"OBJECT_NAME":"LEGION 2","OBJECT_ID":"2024-081B","EPOCH":"2026-03-14T14:10:28.740288","MEAN_MOTION":15.16619169,"ECCENTRICITY":0.00098264,"INCLINATION":97.5068,"RA_OF_ASC_NODE":152.5162,"ARG_OF_PERICENTER":326.9672,"MEAN_ANOMALY":33.0946,"EPHEMERIS_TYPE":0,"CLASSIFICATION_TYPE":"U","NORAD_CAT_ID":59626,"ELEMENT_SET_NO":999,"REV_AT_EPOCH":10320,"BSTAR":0.00029815267,"MEAN_MOTION_DOT":5.767e-5,"MEAN_MOTION_DDOT":0},{"OBJECT_NAME":"ALOS-4 (DAICHI-4)","OBJECT_ID":"2024-123A","EPOCH":"2026-03-14T14:35:12.890976","MEAN_MOTION":14.79478058,"ECCENTRICITY":0.0001562,"INCLINATION":97.9192,"RA_OF_ASC_NODE":172.1361,"ARG_OF_PERICENTER":101.4228,"MEAN_ANOMALY":258.7159,"EPHEMERIS_TYPE":0,"CLASSIFICATION_TYPE":"U","NORAD_CAT_ID":60182,"ELEMENT_SET_NO":999,"REV_AT_EPOCH":9189,"BSTAR":0.00033578412,"MEAN_MOTION_DOT":2.457e-5,"MEAN_MOTION_DDOT":0},{"OBJECT_NAME":"LEGION 3","OBJECT_ID":"2024-146A","EPOCH":"2026-03-14T13:16:21.823104","MEAN_MOTION":15.16212069,"ECCENTRICITY":0.00130472,"INCLINATION":45.0006,"RA_OF_ASC_NODE":177.8238,"ARG_OF_PERICENTER":347.1979,"MEAN_ANOMALY":12.8567,"EPHEMERIS_TYPE":0,"CLASSIFICATION_TYPE":"U","NORAD_CAT_ID":60452,"ELEMENT_SET_NO":999,"REV_AT_EPOCH":8766,"BSTAR":0.00034865793,"MEAN_MOTION_DOT":6.604e-5,"MEAN_MOTION_DDOT":0},{"OBJECT_NAME":"LEGION 4","OBJECT_ID":"2024-146B","EPOCH":"2026-03-14T14:48:16.861248","MEAN_MOTION":15.16270068,"ECCENTRICITY":0.00096705,"INCLINATION":45.0023,"RA_OF_ASC_NODE":269.3279,"ARG_OF_PERICENTER":136.1641,"MEAN_ANOMALY":224.0006,"EPHEMERIS_TYPE":0,"CLASSIFICATION_TYPE":"U","NORAD_CAT_ID":60453,"ELEMENT_SET_NO":999,"REV_AT_EPOCH":8652,"BSTAR":0.00036639188,"MEAN_MOTION_DOT":6.96e-5,"MEAN_MOTION_DDOT":0},{"OBJECT_NAME":"SENTINEL-2C","OBJECT_ID":"2024-157A","EPOCH":"2026-03-14T11:41:39.022080","MEAN_MOTION":14.30816209,"ECCENTRICITY":8.512e-5,"INCLINATION":98.5681,"RA_OF_ASC_NODE":149.6309,"ARG_OF_PERICENTER":108.5232,"MEAN_ANOMALY":251.6043,"EPHEMERIS_TYPE":0,"CLASSIFICATION_TYPE":"U","NORAD_CAT_ID":60989,"ELEMENT_SET_NO":999,"REV_AT_EPOCH":7944,"BSTAR":6.8435771e-5,"MEAN_MOTION_DOT":1.36e-6,"MEAN_MOTION_DDOT":0}]
