SENTINEL-6A             
1 46984U 20086A   26073.45748476 -.00000045  00000+0  69570-4 0  9990
2 46984  66.0440 331.8105 0007791 270.9616  89.0507 12.80929906248198
GAOFEN-12 02            
1 48079U 21026A   26073.59022627  .00000609  00000+0  87049-4 0  9996
2 48079  97.9920  72.1696 0004979 164.5019 195.6346 14.80210313267767
PLEIADES NEO 3          
1 48268U 21034A   26073.64016201  .00000773  00000+0  10484-3 0  9992
2 48268  97.8932 149.7640 0001322  91.9406 268.1958 14.81675406263659
PLEIADES NEO 4          
1 49070U 21073E   26073.60638491 -.00000335  00000+0 -36004-4 0  9997
2 49070  97.8930 149.7265 0001316  91.3254 268.8109 14.81671950247365
LANDSAT 9               
1 49260U 21088A   26073.63901910  .00000487  00000+0  11813-3 0  9992
2 49260  98.1931 145.3453 0001095  94.8745 265.2579 14.57130988237230
CSG-2                   
1 51444U 22008A   26073.57033370  .00000035  00000+0  10897-4 0  9992
2 51444  97.8871 258.5349 0001381  81.4371 278.6998 14.82145689222578
GAOFEN-12 03            
1 52912U 22069A   26073.66826330  .00001276  00000+0  17591-3 0  9991
2 52912  97.8403 323.8693 0002365  86.3434 273.8049 14.79865579200635
SWOT                    
1 54754U 22173A   26073.59721151  .00000014  00000+0  11509-4 0  9993
2 54754  77.6118 162.9982 0000596 248.7634 111.3454 14.00170378165910
GAOFEN-12 04            
1 57654U 23123A   26073.62872565  .00001535  00000+0  20964-3 0  9994
2 57654  97.9129 353.0181 0001606  74.1158 286.0231 14.80020192138647
PARS 1                  
1 59065U 24039Q   26073.60730126  .00017406  00000+0  38798-3 0  9991
2 59065  97.4754  51.7379 0012146  96.0154 264.2479 15.43578520114048
RESURS-P 4              
1 59371U 24061A   26073.64142586  .00005225  00000+0  16645-3 0  9990
2 59371  97.2655  23.2114 0002107  55.1176 305.0264 15.32975934109287
LEGION 1                
1 59625U 24081A   26073.55070543  .00006117  00000+0  31801-3 0  9999
2 59625  97.5069 152.4019 0009696 357.3261   2.7918 15.16398013103192
LEGION 2                
1 59626U 24081B   26073.59061042  .00005767  00000+0  29815-3 0  9990
2 59626  97.5068 152.5162 0009826 326.9672  33.0946 15.16619169103203
ALOS-4 (DAICHI-4)       
1 60182U 24123A   26073.60778809  .00002457  00000+0  33578-3 0  9998
2 60182  97.9192 172.1361 0001562 101.4228 258.7159 14.79478058 91896
LEGION 3                
1 60452U 24146A   26073.55303036  .00006604  00000+0  34866-3 0  9992
2 60452  45.0006 177.8238 0013047 347.1979  12.8567 15.16212069 87664
LEGION 4                
1 60453U 24146B   26073.61686182  .00006960  00000+0  36639-3 0  9991
2 60453  45.0023 269.3279 0009670 136.1641 224.0006 15.16270068 86527
SENTINEL-2C             
1 60989U 24157A   26073.48725720  .00000136  00000+0  68436-4 0  9994
2 60989  98.5681 149.6309 0000851 108.5232 251.6043 14.30816209 79447
